NORAD_CAT_ID,OBJECT_NAME,OBJECT_TYPE,EPOCH,MEAN_MOTION,ECCENTRICITY,INCLINATION,RA_OF_ASC_NODE,ARG_OF_PERICENTER,MEAN_ANOMALY,BSTAR,MEAN_MOTION_DOT,MEAN_MOTION_DDOT,TLE_LINE0,TLE_LINE1,TLE_LINE2,SEMIMAJOR_AXIS,PERIOD,APOGEE,PERIGEE,DECAYED
52664.0,STARLINK-4070,PAYLOAD,2023-09-21 01:55:27,15.08833592,0.0001639,53.2155,237.1114,105.3751,254.7422,-5.2893e-05,-1.13e-05,0.0,0 STARLINK-4070,1 52664U 22053J   23264.08017617 -.00001130  00000-0 -52893-4 0  9990,2 52664  53.2155 237.1114 0001639 105.3751 254.7422 15.08833592 75086,6917.9,95.438,540.899,538.631,0.0
52664.0,STARLINK-4070,PAYLOAD,2023-09-21 08:16:59,15.08840012,0.0001512,53.2157,235.9239,92.6823,267.4342,7.584e-06,-1.67e-06,0.0,0 STARLINK-4070,1 52664U 22053J   23264.34513480 -.00000167  00000-0  75840-5 0  9994,2 52664  53.2157 235.9239 0001512  92.6823 267.4342 15.08840012 75122,6917.88,95.438,540.791,538.699,0.0
52664.0,STARLINK-4070,PAYLOAD,2023-09-22 01:46:12,15.08864919,0.0001714,53.2157,232.6522,82.4995,277.6192,-0.00060284,-9.876e-05,0.0,0 STARLINK-4070,1 52664U 22053J   23265.07376091 -.00009876  00000-0 -60284-3 0  9991,2 52664  53.2157 232.6522 0001714  82.4995 277.6192 15.08864919 75232,6917.804,95.436,540.855,538.484,0.0
52664.0,STARLINK-4070,PAYLOAD,2023-09-22 04:57:00,15.08844134,0.0001449,53.2156,232.0582,89.9007,270.2151,0.00027725,4.128e-05,0.0,0 STARLINK-4070,1 52664U 22053J   23265.20625567  .00004128  00000-0  27725-3 0  9997,2 52664  53.2156 232.0582 0001449  89.9007 270.2151 15.08844134 75255,6917.868,95.437,540.735,538.73,0.0
52664.0,STARLINK-4070,PAYLOAD,2023-09-22 20:50:52,15.08830502,0.0001292,53.2153,229.0857,96.4971,263.6169,0.00057426,8.861e-05,0.0,0 STARLINK-4070,1 52664U 22053J   23265.86866552  .00008861  00000-0  57426-3 0  9999,2 52664  53.2153 229.0857 0001292  96.4971 263.6169 15.08830502 75352,6917.909,95.438,540.668,538.881,0.0
52664.0,STARLINK-4070,PAYLOAD,2023-09-23 03:12:24,15.08844237,0.0001347,53.2155,227.8957,89.274,270.8406,0.00012161,1.648e-05,0.0,0 STARLINK-4070,1 52664U 22053J   23266.13361538  .00001648  00000-0  12161-3 0  9997,2 52664  53.2155 227.8957 0001347  89.2740 270.8406 15.08844237 75394,6917.867,95.437,540.664,538.801,0.0
52664.0,STARLINK-4070,PAYLOAD,2023-09-23 06:23:10,15.08846624,0.0001372,53.2157,227.3012,89.193,270.9219,0.00014785,2.066e-05,0.0,0 STARLINK-4070,1 52664U 22053J   23266.26609383  .00002066  00000-0  14785-3 0  9993,2 52664  53.2157 227.3012 0001372  89.1930 270.9219 15.08846624 75419,6917.86,95.437,540.674,538.776,0.0
52664.0,STARLINK-4070,PAYLOAD,2023-09-24 03:03:11,15.08838304,0.0001589,53.2159,223.436,84.9215,275.1958,-1.511e-05,-5.28e-06,0.0,0 STARLINK-4070,1 52664U 22053J   23267.12721946 -.00000528  00000-0 -15110-4 0  9996,2 52664  53.2159 223.4360 0001589  84.9215 275.1958 15.08838304 75540,6917.886,95.438,540.85,538.651,0.0
52664.0,STARLINK-4070,PAYLOAD,2023-09-24 06:13:57,15.08842381,0.0001617,53.2165,222.8413,85.1044,275.0133,4.3929e-05,4.11e-06,0.0,0 STARLINK-4070,1 52664U 22053J   23267.25969747  .00000411  00000-0  43929-4 0  9991,2 52664  53.2165 222.8413 0001617  85.1044 275.0133 15.08842381 75560,6917.873,95.437,540.857,538.619,0.0
52664.0,STARLINK-4070,PAYLOAD,2023-09-25 04:29:21,15.08847298,0.0001616,53.2165,218.6778,81.7699,278.3476,0.00018371,2.638e-05,0.0,0 STARLINK-4070,1 52664U 22053J   23268.18705724  .00002638  00000-0  18371-3 0  9992,2 52664  53.2165 218.6778 0001616  81.7699 278.3476 15.08847298 75708,6917.858,95.437,540.841,538.605,0.0
52664.0,STARLINK-4070,PAYLOAD,2023-09-25 20:23:12,15.08849629,0.000156,53.2162,215.7041,87.7956,272.3215,0.0001528,2.145e-05,0.0,0 STARLINK-4070,1 52664U 22053J   23268.84945499  .00002145  00000-0  15280-3 0  9999,2 52664  53.2162 215.7041 0001560  87.7956 272.3215 15.08849629 75802,6917.851,95.437,540.795,538.637,0.0
52664.0,STARLINK-4070,PAYLOAD,2023-09-26 02:44:45,15.08856269,0.0001612,53.2158,214.5154,84.4084,275.7092,0.00024607,3.632e-05,0.0,0 STARLINK-4070,1 52664U 22053J   23269.11441041  .00003632  00000-0  24607-3 0  9999,2 52664  53.2158 214.5154 0001612  84.4084 275.7092 15.08856269 75845,6917.831,95.437,540.811,538.581,0.0
52664.0,STARLINK-4070,PAYLOAD,2023-09-26 20:13:59,15.08850456,0.0001805,53.2157,211.2441,101.6226,258.4969,5.2427e-05,5.47e-06,0.0,0 STARLINK-4070,1 52664U 22053J   23269.84305048  .00000547  00000-0  52427-4 0  9999,2 52664  53.2157 211.2441 0001805 101.6226 258.4969 15.08850456 75956,6917.848,95.437,540.962,538.465,0.0
52664.0,STARLINK-4070,PAYLOAD,2023-09-27 02:35:32,15.08842982,0.0001529,53.2159,210.0505,103.4657,256.6505,1.4906e-07,-2.86e-06,0.0,0 STARLINK-4070,1 52664U 22053J   23270.10801300 -.00000286  00000-0  14906-6 0  9995,2 52664  53.2159 210.0505 0001529 103.4657 256.6505 15.08842982 75992,6917.871,95.437,540.794,538.679,0.0
52664.0,STARLINK-4070,PAYLOAD,2023-09-27 13:43:14,15.08830691,0.0001223,53.2143,207.9698,115.7727,244.3392,-0.00016435,-2.902e-05,0.0,0 STARLINK-4070,1 52664U 22053J   23270.57169989 -.00002902  00000-0 -16435-3 0  9990,2 52664  53.2143 207.9698 0001223 115.7727 244.3392 15.08830691 76069,6917.909,95.438,540.62,538.928,0.0
52664.0,STARLINK-4070,PAYLOAD,2023-09-28 02:26:20,15.08832552,0.0001466,53.2174,205.5921,106.5369,253.5784,-0.00014765,-2.637e-05,0.0,0 STARLINK-4070,1 52664U 22053J   23271.10162907 -.00002637  00000-0 -14765-3 0  9992,2 52664  53.2174 205.5921 0001466 106.5369 253.5784 15.08832552 76149,6917.903,95.438,540.782,538.754,0.0
52664.0,STARLINK-4070,PAYLOAD,2023-09-28 19:55:34,15.08837557,0.0001459,53.2183,202.3214,111.4917,248.6231,9.6301e-05,1.245e-05,0.0,0 STARLINK-4070,1 52664U 22053J   23271.83026345  .00001245  00000-0  96301-4 0  9996,2 52664  53.2183 202.3214 0001459 111.4917 248.6231 15.08837557 76259,6917.888,95.438,540.762,538.744,0.0
52664.0,STARLINK-4070,PAYLOAD,2023-09-29 05:27:52,15.08848689,0.0001514,53.2178,200.5354,116.4237,243.6911,0.00018089,2.593e-05,0.0,0 STARLINK-4070,1 52664U 22053J   23272.22769484  .00002593  00000-0  18089-3 0  9991,2 52664  53.2178 200.5354 0001514 116.4237 243.6911 15.08848689 76315,6917.854,95.437,540.766,538.671,0.0
52664.0,STARLINK-4070,PAYLOAD,2023-09-30 02:07:54,15.08840383,0.0001125,53.2161,196.6744,86.6569,273.4551,0.00028734,4.288e-05,0.0,0 STARLINK-4070,1 52664U 22053J   23273.08882298  .00004288  00000-0  28734-3 0  9996,2 52664  53.2161 196.6744 0001125  86.6569 273.4551 15.08840383 76447,6917.879,95.438,540.522,538.966,0.0
52664.0,STARLINK-4070,PAYLOAD,2023-09-30 18:01:48,15.08810549,9.28e-05,53.2169,193.6959,108.0837,252.0256,-0.00026972,-4.574e-05,0.0,0 STARLINK-4070,1 52664U 22053J   23273.75125306 -.00004574  00000-0 -26972-3 0  9992,2 52664  53.2169 193.6959 0000928 108.0837 252.0256 15.08810549 76544,6917.97,95.439,540.477,539.193,0.0
52664.0,STARLINK-4070,PAYLOAD,2023-10-01 01:58:41,15.08847964,0.0001334,53.2167,192.2092,87.6481,272.4664,3.909e-05,3.34e-06,0.0,0 STARLINK-4070,1 52664U 22053J   23274.08242304  .00000334  00000-0  39090-4 0  9991,2 52664  53.2167 192.2092 0001334  87.6481 272.4664 15.08847964 76599,6917.856,95.437,540.644,538.798,0.0
52664.0,STARLINK-4070,PAYLOAD,2023-10-01 11:31:00,15.08839318,0.0001163,53.2156,190.4284,85.8212,274.2913,6.8394e-05,8.01e-06,0.0,0 STARLINK-4070,1 52664U 22053J   23274.47986841  .00000801  00000-0  68394-4 0  9993,2 52664  53.2156 190.4284 0001163  85.8212 274.2913 15.08839318 76650,6917.882,95.438,540.552,538.943,0.0
52664.0,STARLINK-4070,PAYLOAD,2023-10-01 17:52:33,15.08841094,0.0001168,53.2155,189.2386,84.6267,275.4858,7.9735e-05,9.81e-06,0.0,0 STARLINK-4070,1 52664U 22053J   23274.74482706  .00000981  00000-0  79735-4 0  9994,2 52664  53.2155 189.2386 0001168  84.6267 275.4858 15.08841094 76699,6917.877,95.437,540.55,538.934,0.0
52664.0,STARLINK-4070,PAYLOAD,2023-10-02 01:49:27,15.08853551,0.0001276,53.2155,187.7522,85.8851,274.2287,0.00015901,2.245e-05,0.0,0 STARLINK-4070,1 52664U 22053J   23275.07601837  .00002245  00000-0  15901-3 0  9998,2 52664  53.2155 187.7522 0001276  85.8851 274.2287 15.08853551 76746,6917.839,95.437,540.587,538.821,0.0
52664.0,STARLINK-4070,PAYLOAD,2023-10-02 05:00:14,15.08856339,0.0001226,53.2152,187.1572,82.3575,277.7556,0.00021581,3.15e-05,0.0,0 STARLINK-4070,1 52664U 22053J   23275.20849615  .00003150  00000-0  21581-3 0  9998,2 52664  53.2152 187.1572 0001226  82.3575 277.7556 15.08856339 76768,6917.83,95.437,540.544,538.847,0.0
52664.0,STARLINK-4070,PAYLOAD,2023-10-03 03:15:38,15.0884774,0.0001419,53.2151,182.9944,94.7509,265.3645,0.00020873,3.036e-05,0.0,0 STARLINK-4070,1 52664U 22053J   23276.13586487  .00003036  00000-0  20873-3 0  9992,2 52664  53.2151 182.9944 0001419  94.7509 265.3645 15.08847740 76905,6917.857,95.437,540.703,538.74,0.0
52664.0,STARLINK-4070,PAYLOAD,2023-10-03 11:12:35,15.08832997,0.0001836,53.2153,181.5073,85.1467,274.9734,-2.1378e-06,-3.22e-06,0.0,0 STARLINK-4070,1 52664U 22053J   23276.46707316 -.00000322  00000-0 -21378-5 0  9994,2 52664  53.2153 181.5073 0001836  85.1467 274.9734 15.08832997 76953,6917.902,95.438,541.037,538.497,0.0
52664.0,STARLINK-4070,PAYLOAD,2023-10-03 22:20:16,15.0883525,0.0001543,53.2152,179.4244,93.1802,266.9367,2.5158e-05,1.12e-06,0.0,0 STARLINK-4070,1 52664U 22053J   23276.93075164  .00000112  00000-0  25158-4 0  9999,2 52664  53.2152 179.4244 0001543  93.1802 266.9367 15.08835250 77022,6917.895,95.438,540.827,538.692,0.0
52664.0,STARLINK-4070,PAYLOAD,2023-10-04 11:03:21,15.08844442,0.0001718,53.2161,177.0453,90.8626,269.2563,0.00027266,4.055e-05,0.0,0 STARLINK-4070,1 52664U 22053J   23277.46067015  .00004055  00000-0  27266-3 0  9995,2 52664  53.2161 177.0453 0001718  90.8626 269.2563 15.08844442 77106,6917.867,95.437,540.92,538.543,0.0
52664.0,STARLINK-4070,PAYLOAD,2023-10-04 17:24:54,15.0884823,0.0001758,53.2164,175.8551,101.0967,259.0223,0.00043767,6.686e-05,0.0,0 STARLINK-4070,1 52664U 22053J   23277.72563103  .00006686  00000-0  43767-3 0  9999,2 52664  53.2164 175.8551 0001758 101.0967 259.0223 15.08848230 77144,6917.855,95.437,540.936,538.504,0.0
